{"type":"FeatureCollection","features":[{"type":"Feature","properties":{"id":"chablis","name":"Chablis","summary":"Steely, mineral Chardonnay from ancient Kimmeridgian limestone — the northernmost outpost of Burgundy, geographically isolated ~80km northwest of the Côte d'Or.","grapes":"Chardonnay","style":"Lean, crisp, flinty. Oyster shell, green apple, citrus. Unoaked or old oak."},"geometry":{"type":"Polygon","coordinates":[[[3.9235421,47.7853904],[3.9249606,47.7762937],[3.9309378,47.7757181],[3.9379968,47.7718765],[3.930564,47.7724312],[3.9305406,47.7695678],[3.925697,47.7653915],[3.9083288,47.757523],[3.9044181,47.7534487],[3.9015446,47.7450885],[3.8919368,47.7461246],[3.8883613,47.7483355],[3.8811758,47.7434711],[3.8781486,47.737948],[3.8623964,47.7311132],[3.8543835,47.7321876],[3.8428623,47.740066],[3.8387475,47.7394997],[3.8271192,47.7460778],[3.8253185,47.7446738],[3.8211373,47.7487502],[3.8183506,47.7540495],[3.818978,47.7558959],[3.8141685,47.7608229],[3.8087209,47.7701101],[3.7871761,47.7628683],[3.7776019,47.7638837],[3.7776446,47.7674282],[3.7731337,47.7699098],[3.7811548,47.7833728],[3.7599057,47.7847436],[3.7504659,47.7813015],[3.7438697,47.780651],[3.7437328,47.7833006],[3.7458494,47.7850171],[3.738673,47.7962559],[3.7419112,47.8043848],[3.7591223,47.8182601],[3.7588299,47.8197924],[3.7620311,47.823334],[3.7605104,47.829099],[3.7533794,47.8320325],[3.7503163,47.8386346],[3.7279984,47.8337759],[3.7257359,47.8342756],[3.7186977,47.8433254],[3.7075197,47.8454313],[3.707115,47.847877],[3.710293,47.850766],[3.708725,47.851009],[3.709361,47.855105],[3.714421,47.862038],[3.710327,47.866139],[3.7081,47.87438],[3.708955,47.875654],[3.703936,47.877739],[3.711437,47.8905642],[3.7168092,47.8897164],[3.7163236,47.8866138],[3.7231453,47.8844357],[3.7258588,47.8813392],[3.74099,47.8793396],[3.752183,47.8799182],[3.7676742,47.8844967],[3.7847541,47.8852279],[3.7866826,47.8874425],[3.7980955,47.8909313],[3.8054054,47.8891512],[3.812839,47.884581],[3.8169424,47.8850253],[3.8189632,47.8812935],[3.8289501,47.8750562],[3.8282592,47.8715455],[3.8328724,47.8704982],[3.8330893,47.8668042],[3.8363775,47.866577],[3.8365889,47.8642531],[3.8418634,47.8614802],[3.8407069,47.8585729],[3.8444743,47.8571519],[3.8459014,47.8536175],[3.8408023,47.8474072],[3.8443564,47.844971],[3.8477328,47.8349565],[3.8446927,47.8308571],[3.8559062,47.8236789],[3.8538395,47.8209204],[3.8599286,47.825053],[3.8601972,47.8271465],[3.8703891,47.8236888],[3.8766395,47.8243855],[3.880017,47.8280653],[3.8868996,47.8254552],[3.8927994,47.8184673],[3.8929109,47.8138985],[3.870291,47.8107089],[3.8709,47.8067008],[3.8663673,47.8033448],[3.8661672,47.8011045],[3.8694413,47.7964432],[3.8741923,47.7921601],[3.8886171,47.7939445],[3.8904023,47.7930183],[3.8997321,47.7962154],[3.9097668,47.7938641],[3.9186757,47.7938129],[3.9245418,47.7910902],[3.9247543,47.7892958],[3.9227587,47.7895817],[3.9235421,47.7853904]]]}},{"type":"Feature","properties":{"id":"cote-de-nuits","name":"Côte de Nuits","summary":"A narrow limestone escarpment south of Dijon, home to Burgundy's greatest red Grands Crus — Chambertin, Musigny, Romanée-Conti.","grapes":"Pinot Noir","style":"Rich, structured, dark-fruited reds with extraordinary aging potential."},"geometry":{"type":"Polygon","coordinates":[[[4.964562,47.1478651],[4.9688988,47.1462214],[4.9727992,47.1418801],[4.9726214,47.140464],[4.9738118,47.1400892],[4.9730478,47.1383928],[4.9793858,47.1368078],[4.9707294,47.128479],[4.9655352,47.121155],[4.9607749,47.1197794],[4.9612465,47.1182398],[4.9584094,47.1179519],[4.9580173,47.1161083],[4.9522269,47.1152343],[4.9470428,47.1163903],[4.9474984,47.1173208],[4.9453475,47.1177741],[4.945583,47.1191427],[4.9334017,47.1206816],[4.9253325,47.1249244],[4.9270615,47.1293703],[4.9263116,47.1350391],[4.9198952,47.1409815],[4.9122269,47.1435052],[4.9178832,47.1487447],[4.9174937,47.1524178],[4.9127906,47.1520261],[4.9131746,47.1556288],[4.9104114,47.1584989],[4.9075172,47.1566012],[4.9035869,47.1618149],[4.9105588,47.1692382],[4.9095331,47.1760267],[4.9159061,47.1771505],[4.914762,47.1839195],[4.9165616,47.184076],[4.9170095,47.1878882],[4.9208399,47.188339],[4.92166,47.1992131],[4.9251555,47.2009384],[4.9239145,47.2023844],[4.9277194,47.204332],[4.9318315,47.2089904],[4.9229934,47.2139418],[4.930269,47.2223984],[4.9264051,47.2233617],[4.9205972,47.2341137],[4.9219398,47.2364098],[4.9198293,47.2444543],[4.9147068,47.2450357],[4.9160322,47.2508227],[4.9105455,47.2519887],[4.9105338,47.2531155],[4.9066323,47.254746],[4.9074815,47.2552461],[4.9042722,47.2559549],[4.9059484,47.260149],[4.9002377,47.2627535],[4.9038465,47.2663075],[4.9086551,47.2671883],[4.9159667,47.2671344],[4.91816,47.2645595],[4.9255464,47.2664507],[4.9291843,47.2654442],[4.9362585,47.271115],[4.9378934,47.2781882],[4.9478353,47.2827431],[4.9475751,47.2854791],[4.9534609,47.2900564],[4.9547141,47.2924914],[4.9644206,47.296262],[4.9696008,47.2960046],[4.9704767,47.2973901],[4.9915937,47.2869316],[5.0263821,47.2799124],[5.0289059,47.2740994],[5.0366577,47.2709924],[5.035351,47.2645974],[5.0249535,47.2678401],[5.0186671,47.2717741],[5.0196543,47.2734451],[5.0090637,47.2742417],[5.002781,47.2721347],[5.00067,47.2685573],[4.9993357,47.2611208],[5.0064867,47.2581428],[5.0086299,47.2546853],[5.0082467,47.2532281],[5.0264757,47.2417135],[5.025763,47.240171],[5.0218515,47.2399011],[5.0221122,47.235927],[5.0303805,47.2353053],[5.0286871,47.2253403],[5.0408877,47.2236981],[5.0398345,47.2202655],[5.0500438,47.2167328],[5.0459957,47.2132111],[5.0444771,47.2136183],[5.0414526,47.2092364],[5.0427927,47.2083256],[5.0297399,47.2017332],[5.0247236,47.2025933],[5.026825,47.2148848],[5.016447,47.2185853],[5.0109086,47.2177473],[5.0112789,47.2138403],[5.0074841,47.2084518],[4.9955027,47.2006441],[5.0010037,47.1969915],[5.0000611,47.1961031],[5.0016839,47.1936929],[5.0055789,47.1921384],[4.9934537,47.1935663],[4.991157,47.1908546],[4.9841978,47.1919165],[4.9830609,47.1883094],[4.9802226,47.1890855],[4.9789183,47.1870351],[4.9775559,47.187325],[4.9745587,47.1848137],[4.9671519,47.1864063],[4.9639765,47.1781421],[4.9678839,47.1742743],[4.9666353,47.1717947],[4.9626769,47.1719508],[4.9628822,47.1676165],[4.9554863,47.1688586],[4.9553594,47.1719118],[4.953564,47.1743641],[4.9483021,47.1748927],[4.9479743,47.1736673],[4.9435201,47.1738228],[4.9358816,47.176896],[4.9342271,47.1786834],[4.9336238,47.1759819],[4.9395198,47.1722311],[4.9372319,47.1703334],[4.9480951,47.1667412],[4.9586706,47.1665391],[4.968313,47.1647115],[4.969172,47.1625352],[4.9706025,47.1623584],[4.9699931,47.161351],[4.9725348,47.16067],[4.9716117,47.1594378],[4.9754765,47.1578718],[4.9748511,47.1561261],[4.9763965,47.1552157],[4.9675131,47.1550626],[4.9642202,47.1530698],[4.9619591,47.1480132],[4.964562,47.1478651]]]}},{"type":"Feature","properties":{"id":"cote-de-beaune","name":"Côte de Beaune","summary":"Produces Burgundy's greatest white wines alongside elegant reds. Montrachet, Meursault, Corton are the benchmarks.","grapes":"Chardonnay, Pinot Noir","style":"Whites: rich, nutty, mineral. Reds: softer and more supple than Côte de Nuits."},"geometry":{"type":"Polygon","coordinates":[[[4.68497,46.900385],[4.682393,46.898248],[4.683845,46.896182],[4.687457,46.893661],[4.690232,46.895056],[4.694083,46.893525],[4.682689,46.880397],[4.670906,46.886054],[4.6676,46.88434],[4.65917,46.886238],[4.656495,46.88466],[4.653374,46.887643],[4.651249,46.886345],[4.655263,46.88367],[4.647861,46.880802],[4.643083,46.882975],[4.639963,46.880795],[4.63566,46.884697],[4.636675,46.885334],[4.635476,46.887576],[4.636517,46.889644],[4.643543,46.892279],[4.64587,46.895546],[4.64092,46.895946],[4.636912,46.901155],[4.6465794,46.9072941],[4.6444568,46.9075336],[4.6481603,46.9105908],[4.6493068,46.9157305],[4.6516941,46.9174725],[4.6480533,46.920754],[4.6490719,46.923079],[4.6429297,46.9241075],[4.6461928,46.9268685],[4.6521545,46.938783],[4.6602236,46.9343632],[4.6785378,46.9306645],[4.6795602,46.9300821],[4.6791949,46.9268841],[4.6816392,46.9269007],[4.6820388,46.9303841],[4.6875636,46.9345244],[4.6880157,46.9367366],[4.6861931,46.9370033],[4.6858644,46.9386844],[4.6792268,46.9427706],[4.6792779,46.9439213],[4.6836448,46.9446355],[4.683772,46.9504949],[4.6885083,46.9528473],[4.6900207,46.9510543],[4.6980439,46.9497754],[4.709191,46.9550669],[4.7102034,46.9566986],[4.7043432,46.9581641],[4.7035741,46.9601475],[4.706736,46.9616217],[4.7051275,46.9619673],[4.7100034,46.9689686],[4.7167352,46.9701397],[4.7078944,46.9731401],[4.705702,46.9707666],[4.7026008,46.970114],[4.7040469,46.972587],[4.6973791,46.977003],[4.6984064,46.9796298],[4.6964509,46.9818035],[4.696739,46.9838809],[4.6975694,46.9847593],[4.6991694,46.9829679],[4.7038269,46.9897216],[4.6994904,46.9922066],[4.6984756,46.9936363],[4.6992426,46.9943173],[4.6979494,46.9949722],[4.6972027,46.9995452],[4.6991465,47.0019356],[4.6904991,47.0062317],[4.6873451,47.0058927],[4.6873536,47.0038384],[4.6782441,47.0030591],[4.6781924,47.004382],[4.6716092,47.0047896],[4.6687827,47.011781],[4.6638481,47.0150479],[4.6648325,47.0168697],[4.6634833,47.0182741],[4.6653202,47.0228276],[4.669435,47.0269435],[4.670024,47.0359279],[4.6735656,47.0362888],[4.6749849,47.033948],[4.6779617,47.0344049],[4.6830128,47.0364303],[4.685655,47.0406893],[4.6880173,47.0409873],[4.6901438,47.0398128],[4.692885,47.0330378],[4.7095036,47.0270869],[4.7146849,47.0227599],[4.7358781,47.0153751],[4.745232,47.0181746],[4.749815,47.017575],[4.7568593,47.0192307],[4.7662253,47.018509],[4.7743139,47.0199169],[4.7734465,47.021136],[4.7747961,47.0287676],[4.7788481,47.0336433],[4.7759738,47.0395217],[4.7831275,47.0390521],[4.7872533,47.0401335],[4.7872087,47.0429119],[4.7926168,47.0460023],[4.7952212,47.0495175],[4.7934617,47.0530269],[4.7870356,47.0554206],[4.7905761,47.0588586],[4.7766172,47.0615951],[4.759825,47.0684498],[4.7630002,47.0733958],[4.7587553,47.0740317],[4.7592914,47.076958],[4.7552557,47.0791313],[4.7542626,47.0810409],[4.7553336,47.0834843],[4.7600832,47.0839672],[4.7617163,47.0871774],[4.7567433,47.0884737],[4.7572668,47.0897133],[4.7551123,47.090263],[4.7559073,47.0918985],[4.762274,47.0947918],[4.7664674,47.0950013],[4.7661123,47.100664],[4.7691597,47.1044838],[4.77044,47.1113458],[4.7792934,47.1129206],[4.7900443,47.1109708],[4.7885016,47.112854],[4.7904124,47.1169592],[4.7957324,47.1174136],[4.8004063,47.114209],[4.8084204,47.1130486],[4.8089319,47.111406],[4.8117983,47.1100842],[4.8114793,47.1066034],[4.8166839,47.1083287],[4.8218404,47.1031759],[4.827876,47.1018687],[4.8316827,47.1038434],[4.8350024,47.1023009],[4.83176,47.0993643],[4.8332757,47.0988053],[4.8334427,47.0957525],[4.8355588,47.0957188],[4.8381334,47.0917831],[4.8557474,47.0916979],[4.8575901,47.0938212],[4.8595371,47.0939881],[4.8627304,47.0889426],[4.8670339,47.0879094],[4.8685609,47.085531],[4.8665504,47.0833772],[4.8681614,47.0824946],[4.872116,47.0859194],[4.8767294,47.0871429],[4.8814706,47.0840319],[4.8819651,47.0902606],[4.8913453,47.0905373],[4.8917314,47.0921831],[4.8943439,47.0936736],[4.8996845,47.0883511],[4.895852,47.0851794],[4.902462,47.0800205],[4.9038464,47.0784075],[4.9024257,47.0775858],[4.9048873,47.0761443],[4.907113,47.0786278],[4.9119958,47.0758395],[4.9170407,47.0748111],[4.9237247,47.0759926],[4.9320148,47.0741316],[4.9344997,47.0764892],[4.9375597,47.0730202],[4.941828,47.0714338],[4.941499,47.0679507],[4.9487497,47.0671494],[4.9530515,47.0648315],[4.9564418,47.0649887],[4.9639108,47.061114],[4.9626575,47.059834],[4.964333,47.0564781],[4.9603742,47.0526507],[4.9579009,47.0525393],[4.9578947,47.0509409],[4.9619613,47.0481572],[4.959889,47.0464914],[4.9213393,47.0407855],[4.8954927,47.0409298],[4.8792425,47.0574605],[4.8664984,47.0634147],[4.8592156,47.055915],[4.8511221,47.0579783],[4.8478616,47.0533816],[4.8530442,47.0508441],[4.8517851,47.0495309],[4.8542384,47.049197],[4.8485043,47.0414922],[4.8595476,47.0405014],[4.8678136,47.0421212],[4.8831308,47.0408257],[4.8780573,47.034286],[4.879682,47.0333188],[4.8793127,47.0323661],[4.8768954,47.0315781],[4.8734433,47.0328205],[4.8689491,47.027913],[4.8626484,47.026795],[4.8638121,47.0258998],[4.8629223,47.025099],[4.8652747,47.0237394],[4.8592532,47.0219164],[4.8586405,47.0203505],[4.8749731,47.0193308],[4.8778002,47.0183937],[4.8763918,47.0165815],[4.8915875,47.0129854],[4.894139,47.0104667],[4.8965493,47.0102084],[4.8941829,47.0046702],[4.8951652,47.0020675],[4.8973109,47.0014803],[4.8933395,46.9959202],[4.890035,46.9957685],[4.8611689,47.0052855],[4.8527059,46.9981896],[4.844378,47.0016122],[4.837366,47.0025919],[4.8368992,47.0015754],[4.8342812,47.0021497],[4.8330962,47.0001637],[4.8248055,47.0027879],[4.8228865,46.9981774],[4.8157162,46.9908986],[4.8103559,46.9885464],[4.8124033,46.9850191],[4.8121585,46.9829023],[4.8093902,46.9781706],[4.8065332,46.979435],[4.8052066,46.9782496],[4.8034228,46.9747346],[4.8053356,46.9741881],[4.7999194,46.9670775],[4.8030498,46.9668199],[4.8014209,46.9648643],[4.8090751,46.9591853],[4.8163528,46.9564729],[4.8178582,46.9513655],[4.8105563,46.955156],[4.8092368,46.955578],[4.8084659,46.9539489],[4.806673,46.9562194],[4.7982245,46.9577068],[4.792553,46.9610098],[4.7897561,46.9590719],[4.7872802,46.9604935],[4.7789266,46.9541217],[4.7783517,46.9514664],[4.7797804,46.9506245],[4.7808433,46.9464261],[4.7889612,46.9461766],[4.7875195,46.9421039],[4.7889886,46.9361533],[4.7862195,46.9349604],[4.7780273,46.9381797],[4.771404,46.9353565],[4.7634165,46.9374161],[4.7586643,46.9405689],[4.7550092,46.9366448],[4.7496678,46.9379486],[4.7436466,46.9311102],[4.7410731,46.9302614],[4.7443549,46.9245947],[4.7401203,46.9211928],[4.736622,46.9234932],[4.728161,46.919395],[4.7245072,46.9217619],[4.7251487,46.9235623],[4.7185413,46.9197701],[4.7219425,46.9131988],[4.7152934,46.9116547],[4.7174057,46.9079665],[4.7157645,46.9069079],[4.7058648,46.9039873],[4.6974066,46.9039769],[4.6923697,46.9014646],[4.6895385,46.9025116],[4.6876663,46.8998587],[4.68497,46.900385]],[[4.7494531,47.0097161],[4.7525585,47.0049297],[4.7527063,46.9947559],[4.7542308,46.9924796],[4.7588916,46.9907669],[4.7585988,46.9887139],[4.7696257,46.9889357],[4.7733735,46.990257],[4.7760647,46.9928451],[4.7734464,46.9955623],[4.7706342,47.0013257],[4.7714398,47.0019647],[4.7661617,47.0047717],[4.7627216,47.0119124],[4.7596987,47.0127893],[4.7588961,47.0109413],[4.7555363,47.009409],[4.7498387,47.0112459],[4.7494531,47.0097161]]]}},{"type":"Feature","properties":{"id":"cote-chalonnaise","name":"Côte Chalonnaise","summary":"Outstanding value — Mercurey, Givry, Rully, and Montagny offer Burgundian quality at fair prices.","grapes":"Pinot Noir, Chardonnay","style":"Lighter, earlier-drinking than the Côte d'Or but with real terroir character."},"geometry":{"type":"MultiPolygon","coordinates":[[[[4.6468915,46.6921244],[4.656373,46.706108],[4.6494147,46.7092339],[4.6498247,46.7115369],[4.6647508,46.7191267],[4.654905,46.7257008],[4.6518739,46.7352808],[4.6426939,46.7401711],[4.653474,46.742615],[4.6706782,46.7362645],[4.679531,46.73984],[4.6828835,46.7380697],[4.6875037,46.7416759],[4.699371,46.739719],[4.702108,46.73359],[4.7451888,46.7306027],[4.7417302,46.721324],[4.7657278,46.7146207],[4.7440843,46.7048454],[4.7420817,46.6963985],[4.7372506,46.6920535],[4.7494673,46.686191],[4.7704832,46.6842658],[4.7791622,46.6775459],[4.7693657,46.6743432],[4.7593358,46.6788197],[4.7401041,46.6679788],[4.7367908,46.6722177],[4.7115259,46.676704],[4.7058425,46.6731134],[4.6999925,46.6747324],[4.6821725,46.6710804],[4.6757775,46.6729214],[4.6717175,46.6790344],[4.6457695,46.6804334],[4.6431465,46.6887324],[4.6468915,46.6921244]]],[[[4.740177,46.858726],[4.7382807,46.8416658],[4.747354,46.838981],[4.7509923,46.8324998],[4.765364,46.82785],[4.771737,46.82861],[4.775513,46.826638],[4.729204,46.817233],[4.713127,46.823898],[4.689462,46.8225123],[4.68419,46.827348],[4.687121,46.82838],[4.681618,46.828206],[4.6863081,46.8363297],[4.691846,46.836566],[4.712605,46.852501],[4.7046862,46.8574671],[4.706129,46.8618521],[4.7104048,46.8612122],[4.7101201,46.8685697],[4.7185243,46.8767148],[4.711969,46.8861],[4.7198812,46.8966578],[4.734146,46.904836],[4.743127,46.9006],[4.7393097,46.8898051],[4.7707272,46.8830281],[4.7731542,46.8853584],[4.7884494,46.8846791],[4.8157968,46.8796157],[4.79065,46.866896],[4.773548,46.874058],[4.752543,46.867008],[4.740177,46.858726]]],[[[4.717781,46.788381],[4.7437702,46.7952318],[4.757597,46.789561],[4.780389,46.788617],[4.791344,46.778299],[4.789453,46.77404],[4.786119,46.775095],[4.781035,46.771132],[4.785545,46.761355],[4.792903,46.76362],[4.80903,46.757308],[4.803075,46.749226],[4.797341,46.750374],[4.794313,46.746834],[4.786455,46.747506],[4.775846,46.742712],[4.7420517,46.7524866],[4.737318,46.760118],[4.7165403,46.7673125],[4.717606,46.773919],[4.692042,46.782842],[4.6940667,46.7863508],[4.717781,46.788381]]],[[[4.5854642,46.9435049],[4.5835971,46.9456237],[4.5863519,46.954704],[4.6032173,46.94939],[4.6132019,46.9496278],[4.6181703,46.9453815],[4.6071348,46.9354498],[4.5943915,46.9375223],[4.5854642,46.9435049]]]]}},{"type":"Feature","properties":{"id":"maconnais","name":"Mâconnais","summary":"A large, warm southern zone producing accessible Chardonnay, including the famous Pouilly-Fuissé.","grapes":"Chardonnay (mostly), Gamay","style":"Ripe, approachable whites with stone-fruit and floral notes. Usually unoaked."},"geometry":{"type":"MultiPolygon","coordinates":[[[[4.7480467,46.2053268],[4.7565294,46.1886662],[4.7687106,46.1867881],[4.7673633,46.1824354],[4.7755265,46.1771365],[4.7611711,46.1762402],[4.758388,46.1720397],[4.7299722,46.1779759],[4.7201638,46.1941431],[4.7263464,46.2082952],[4.7345018,46.2064602],[4.7357674,46.2118828],[4.7290566,46.2141915],[4.731189,46.2189197],[4.7205257,46.2216456],[4.719939,46.2285863],[4.7323762,46.2266837],[4.737223,46.2329],[4.7642362,46.227476],[4.7666679,46.2503876],[4.7503166,46.2582461],[4.742578,46.2546318],[4.7477917,46.2513087],[4.7448123,46.2490558],[4.7096173,46.2487323],[4.710647,46.2568441],[4.7170312,46.256726],[4.7128355,46.2635724],[4.7006649,46.2674383],[4.7077014,46.2696293],[4.7100931,46.2783987],[4.6928335,46.2974049],[4.6988955,46.3162863],[4.7050014,46.3238069],[4.7160392,46.3239016],[4.730449,46.3318567],[4.707357,46.348007],[4.7159208,46.3511945],[4.7164994,46.3687909],[4.7151077,46.3731624],[4.7036281,46.3757752],[4.7047992,46.3840942],[4.6958805,46.3882554],[4.6969558,46.4099137],[4.716087,46.4290261],[4.7148644,46.4348345],[4.7208818,46.4414842],[4.7253259,46.4409556],[4.7257483,46.4345174],[4.7320492,46.4340996],[4.7328972,46.4387419],[4.7266276,46.4420058],[4.7359145,46.4474051],[4.730935,46.452118],[4.7383857,46.4559604],[4.7472791,46.4544839],[4.7474487,46.447972],[4.7510843,46.4514566],[4.7801403,46.4438757],[4.8000276,46.4665972],[4.7911683,46.4705512],[4.7993231,46.47655],[4.7962818,46.4837427],[4.8086083,46.4900363],[4.8060618,46.499762],[4.8127499,46.5043926],[4.823459,46.5031488],[4.8314289,46.5167549],[4.8497996,46.5145349],[4.8546314,46.5179886],[4.8524834,46.5210427],[4.8803649,46.5171103],[4.8844401,46.5231385],[4.8928382,46.5082854],[4.9269611,46.4992144],[4.915925,46.4891477],[4.9144267,46.4803851],[4.8484838,46.4955917],[4.8472553,46.4776101],[4.8396056,46.4618584],[4.8712976,46.4578478],[4.8736863,46.4475535],[4.8631899,46.4424087],[4.8722667,46.4364265],[4.8715021,46.4316774],[4.8638219,46.4255097],[4.8416882,46.422209],[4.8277155,46.3991199],[4.7984971,46.4038064],[4.8014728,46.4240882],[4.7944319,46.426766],[4.7760778,46.4293032],[4.7740228,46.4247686],[4.778789,46.4235983],[4.7687678,46.4163442],[4.7673279,46.4081687],[4.7730044,46.4042929],[4.7648105,46.4013004],[4.7619262,46.3934499],[4.7716303,46.3831949],[4.7829941,46.3832808],[4.7854618,46.3772022],[4.7818728,46.3726265],[4.7898693,46.3675554],[4.7823116,46.3457432],[4.7693436,46.3499077],[4.7625403,46.3434343],[4.7582658,46.3305182],[4.7648367,46.3305399],[4.7677391,46.3220864],[4.7808554,46.322947],[4.7814639,46.3139125],[4.7607192,46.3136411],[4.7701657,46.298088],[4.7615342,46.2965551],[4.7576484,46.2881444],[4.778265,46.28797],[4.779251,46.284978],[4.780885,46.284123],[4.800861,46.291164],[4.810801,46.304981],[4.817421,46.304888],[4.820203,46.311475],[4.810719,46.313347],[4.80153,46.322797],[4.809512,46.3275844],[4.8089957,46.337944],[4.82002,46.3317297],[4.8516199,46.3262413],[4.8326898,46.2998247],[4.8263254,46.2762204],[4.8148461,46.2817048],[4.8109286,46.2771685],[4.7881007,46.276948],[4.7865705,46.2735822],[4.7979103,46.2729344],[4.7926419,46.2614666],[4.7979587,46.2555419],[4.8116371,46.2517423],[4.7928929,46.2078194],[4.774963,46.207767],[4.766922,46.202356],[4.7480467,46.2053268]]],[[[4.9113856,46.5403669],[4.9054552,46.5447638],[4.907453,46.5511673],[4.9016424,46.5538852],[4.8909226,46.5422423],[4.8816182,46.5461858],[4.8821754,46.550704],[4.8752048,46.5434406],[4.8774154,46.5503411],[4.8718261,46.55049],[4.8747685,46.5607065],[4.8687819,46.56177],[4.8690513,46.5659165],[4.8819293,46.5761556],[4.8902636,46.5769341],[4.8992385,46.5873629],[4.9182986,46.5874124],[4.9353096,46.5960862],[4.9175283,46.5741465],[4.9233694,46.5479753],[4.9113856,46.5403669]]],[[[4.6627959,46.35085],[4.6950636,46.3401816],[4.693307,46.3361377],[4.7045435,46.3238424],[4.6891406,46.3165937],[4.6586733,46.3224421],[4.6411254,46.318935],[4.6483954,46.3436949],[4.6627959,46.35085]]],[[[4.8296395,46.3795405],[4.8396893,46.3785511],[4.8404407,46.3711303],[4.8586251,46.3680837],[4.851016,46.3523105],[4.8399192,46.3535345],[4.8352493,46.3467208],[4.8226048,46.3488767],[4.820362,46.3441102],[4.8043223,46.3546122],[4.8178466,46.3646086],[4.8215742,46.3762631],[4.8318242,46.3772642],[4.8296395,46.3795405]]]]}}]}